1 08820U 76039A   03070.71294485 -.00000004  00000-0  10000-3 0  9048
2 08820 109.8238 148.2331 0044353 322.2502  37.5120  6.38664565370836
